COSMOS 2529 (757)       
1 43687U 18086A   24290.08286233  .00000006  00000+0  00000+0 0  9994
2 43687  64.2957 213.1814 0009520 260.7522  99.1517  2.13101919 46305
COSMOS 2534 (758)       
1 44299U 19030A   24292.49493994  .00000022  00000+0  00000+0 0  9993
2 44299  64.3686 213.0648 0011476 283.2263 261.3785  2.13101800 41993
COSMOS 2544 (759)       
1 44850U 19088A   24290.86688592  .00000054  00000+0  00000+0 0  9993
2 44850  65.2455  94.0840 0011690 246.5619 113.3328  2.13101999 37753
COSMOS 2545 (760)       
1 45358U 20018A   24292.47151483 -.00000048  00000+0  00000+0 0  9999
2 45358  64.6900 333.6644 0012052 243.2715 116.6740  2.13102473 35731
COSMOS 2547 (705K)      
1 46805U 20075A   24292.18882202  .00000021  00000+0  00000+0 0  9998
2 46805  64.5979 212.7532 0007376 239.0576 120.8925  2.13102661 30970
COSMOS 2557 (706K)      
1 52984U 22075A   24292.35467668 -.00000050  00000+0  00000+0 0  9992
2 52984  64.6200 335.7872 0013577 274.2255  85.6896  2.13102060 17783
COSMOS 2559 (707K)      
1 54031U 22130A   24292.29797123 -.00000050  00000+0  00000+0 0  9994
2 54031  64.5920 335.9024 0008362 227.1673 132.8326  2.13101331 15752
COSMOS 2564 (761)       
1 54377U 22161A   24292.95753274  .00000023  00000+0  00000+0 0  9992
2 54377  64.7393 212.8544 0009538 218.6515 141.3066  2.13102071 14710
COSMOS 2569 (703K)      
1 57517U 23114A   24292.97392792  .00000029  00000+0  00000+0 0  9992
2 57517  64.9751  93.1180 0008644 292.1410  67.7712  2.13103934  9344
GPS BIIR-2  (PRN 13)    
1 24876U 97035A   24291.92888479  .00000063  00000+0  00000+0 0  9991
2 24876  55.7102 122.3315 0085217  54.6286 306.2321  2.00561416199573
GPS BIIR-4  (PRN 20)    
1 26360U 00025A   24292.31515941 -.00000072  00000+0  00000+0 0  9990
2 26360  54.7647  43.8723 0039655 219.1603 149.1003  2.00569954179105
GPS BIIR-5  (PRN 22)    
1 26407U 00040A   24292.78643164  .00000002  00000+0  00000+0 0  9991
2 26407  55.0212 239.2664 0141454 296.4375 250.2094  2.00561803177780
GPS BIIR-8  (PRN 16)    
1 27663U 03005A   24292.84713615  .00000002  00000+0  00000+0 0  9996
2 27663  55.0586 239.0751 0139223  47.9729 322.8290  2.00567660159159
GPS BIIR-9  (PRN 21)    
1 27704U 03010A   24292.62751090 -.00000087  00000+0  00000+0 0  9997
2 27704  55.0700 348.8088 0255940 330.5041  97.1373  2.00567220157938
GPS BIIR-11 (PRN 19)    
1 28190U 04009A   24293.21752889 -.00000038  00000+0  00000+0 0  9995
2 28190  55.3485 300.0790 0098928 154.0368 277.0201  2.00555391150829
GPS BIIR-13 (PRN 02)    
1 28474U 04045A   24293.05316302 -.00000089  00000+0  00000+0 0  9994
2 28474  55.3995 349.2526 0165042 295.6873  63.8324  2.00562371146263
GPS BIIRM-1 (PRN 17)    
1 28874U 05038A   24292.33453203 -.00000034  00000+0  00000+0 0  9993
2 28874  55.3947 297.5797 0137437 286.1251 251.8463  2.00576976139666
GPS BIIRM-2 (PRN 31)    
1 29486U 06042A   24292.46266988  .00000046  00000+0  00000+0 0  9997
2 29486  54.6753 175.4046 0105024  42.2427 128.4675  2.00573779132224
GPS BIIRM-3 (PRN 12)    
1 29601U 06052A   24292.14465526 -.00000001  00000+0  00000+0 0  9993
2 29601  55.0930 238.0895 0085342  83.7106 277.2397  2.00574264131231
GPS BIIRM-4 (PRN 15)    
1 32260U 07047A   24292.95070022  .00000027  00000+0  00000+0 0  9992
2 32260  53.6765 105.1215 0159408  78.1653 283.6460  2.00558225124677
GPS BIIRM-5 (PRN 29)    
1 32384U 07062A   24292.76843684 -.00000036  00000+0  00000+0 0  9998
2 32384  55.5363 298.4432 0028001 157.9752 199.3141  2.00553866123412
GPS BIIRM-6 (PRN 07)    
1 32711U 08012A   24292.86485433  .00000043  00000+0  00000+0 0  9990
2 32711  54.4496 174.1210 0189712 240.1742 118.0176  2.00571649121598
GPS BIIRM-8 (PRN 05)    
1 35752U 09043A   24293.08171231 -.00000061  00000+0  00000+0 0  9997
2 35752  55.7773  51.3657 0055694  75.9910  93.9993  2.00562098111181
GPS BIIF-1  (PRN 25)    
1 36585U 10022A   24292.24648241  .00000001  00000+0  00000+0 0  9991
2 36585  54.4074 233.0331 0117120  62.1914 341.9281  2.00557631105422
GPS BIIF-3  (PRN 24)    
1 38833U 12053A   24292.05120959  .00000053  00000+0  00000+0 0  9992
2 38833  53.5182 168.4497 0159247  58.0033 303.6337  2.00560348 88152
GPS BIIF-4  (PRN 27)    
1 39166U 13023A   24292.41176541 -.00000032  00000+0  00000+0 0  9996
2 39166  55.0080 293.6081 0125373  44.9461 316.0716  2.00562314 83708
GPS BIIF-5  (PRN 30)    
1 39533U 14008A   24292.40619598  .00000046  00000+0  00000+0 0  9995
2 39533  53.5674 174.0431 0072552 220.0815 139.4725  2.00549181 78066
GPS BIIF-6  (PRN 06)    
1 39741U 14026A   24292.68997078 -.00000089  00000+0  00000+0 0  9996
2 39741  56.6968 355.0839 0033258 312.8754  46.9058  2.00559324 76375
GPS BIIF-7  (PRN 09)    
1 40105U 14045A   24292.77789127  .00000041  00000+0  00000+0 0  9994
2 40105  54.9883 112.6684 0029680 116.3467 244.0004  2.00574540 73911
GPS BIIF-8  (PRN 03)    
1 40294U 14068A   24292.65544617 -.00000054  00000+0  00000+0 0  9993
2 40294  56.5278  54.4316 0054850  65.7148 294.8442  2.00567577 73046
GPS BIIF-9  (PRN 26)    
1 40534U 15013A   24292.78599921  .00000004  00000+0  00000+0 0  9997
2 40534  53.3049 229.2771 0092764  31.2731 329.2682  2.00558074 69667
GPS BIIF-10 (PRN 08)    
1 40730U 15033A   24292.94754274 -.00000032  00000+0  00000+0 0  9991
2 40730  54.4896 291.9983 0097245  20.0041 340.3779  2.00560597 67838
GPS BIIF-11 (PRN 10)    
1 41019U 15062A   24292.50941539 -.00000054  00000+0  00000+0 0  9992
2 41019  56.5067  54.2917 0099899 225.1102 134.0659  2.00562573 65662
GPS BIIF-12 (PRN 32)    
1 41328U 16007A   24292.09280305  .00000051  00000+0  00000+0 0  9992
2 41328  55.1788 113.5658 0081228 238.4482 120.8036  2.00555734 63667
GPS BIII-1  (PRN 04)    
1 43873U 18109A   24292.98019205  .00000043  00000+0  00000+0 0  9992
2 43873  55.3478 116.1339 0031318 191.8085 340.3331  2.00560714 42919
GPS BIII-2  (PRN 18)    
1 44506U 19056A   24292.61213736 -.00000090  00000+0  00000+0 0  9996
2 44506  55.8300 355.2028 0048134 192.4674 339.0166  2.00556918 37903
GPS BIII-3  (PRN 23)    
1 45854U 20041A   24292.44269869 -.00000057  00000+0  00000+0 0  9991
2 45854  56.2274  52.5934 0048592 194.7902 151.0943  2.00570497 31867
GPS BIII-4  (PRN 14)    
1 46826U 20078A   24292.75132588  .00000002  00000+0  00000+0 0  9991
2 46826  54.1372 235.3891 0050226 198.8273 344.6409  2.00560203 29340
GPS BIII-5  (PRN 11)    
1 48859U 21054A   24292.25736994 -.00000090  00000+0  00000+0 0  9998
2 48859  55.3578 356.8118 0018677 224.7820 144.5990  2.00576713 24587
GPS BIII-6  (PRN 28)    
1 55268U 23009A   24291.93938146  .00000053  00000+0  00000+0 0  9997
2 55268  55.0840 172.3567 0002142  70.5986 113.4369  2.00555748 13068
SCD 1                   
1 22490U 93009B   24293.22236500  .00001680  00000+0  41225-3 0  9999
2 22490  24.9708 347.6472 0042239 206.4242 195.7289 14.45518146673727
TECHSAT 1B (GO-32)      
1 25397U 98043D   24293.17479204  .00000641  00000+0  29840-3 0  9990
2 25397  98.9397 261.8512 0001902 126.9979 233.1373 14.24160233365285
SCD 2                   
1 25504U 98060A   24293.11896441  .00001396  00000+0  34171-3 0  9990
2 25504  24.9946 208.5423 0016865 199.9476 183.2240 14.44989670372911
DLR-TUBSAT              
1 25757U 99029B   24292.79292104  .00000843  00000+0  21990-3 0  9996
2 25757  98.6040 259.5568 0015096  38.7283 321.4991 14.52054158345339
TERRA                   
1 25994U 99068A   24293.20872563  .00002482  00000+0  52518-3 0  9993
2 25994  98.0340 352.9875 0002052  11.7547  55.9808 14.60121190321262
MAROC-TUBSAT            
1 27004U 01056D   24292.89731248  .00000021  00000+0  76858-4 0  9996
2 27004  99.7510  88.8672 0019104 256.0674 234.6228 13.70220691143152
AQUA                    
1 27424U 02022A   24293.18335115  .00006325  00000+0  13241-2 0  9990
2 27424  98.3448 243.1525 0002448  77.4320  47.1748 14.60106581194805
IRS-P6 (RESOURCESAT-1)  
1 28051U 03046A   24293.16429986  .00001197  00000+0  41869-3 0  9992
2 28051  98.2788 345.6344 0064597 359.5963  74.9670 14.35704446 93586
SHIYAN 1 (SY-1)         
1 28220U 04012A   24293.16773431  .00026948  00000+0  14207-2 0  9997
2 28220  97.9534 326.4108 0007801 339.7888  20.3033 15.15524374118928
AURA                    
1 28376U 04026A   24292.89078061  .00005157  00000+0  10989-2 0  9992
2 28376  98.2631 236.9815 0002479  66.7157 293.4303 14.59366945 77713
IRS-P5 (CARTOSAT-1)     
1 28649U 05017A   24292.85701417  .00007167  00000+0  78585-3 0  9990
2 28649  97.5999 331.2064 0000485  81.1963 278.9309 14.88011284 53545
SINAH 1                 
1 28893U 05043D   24293.19988353  .00002257  00000+0  44772-3 0  9990
2 28893  98.2100  56.2492 0015028  19.1389 341.0374 14.63140767 12113
EROS B                  
1 29079U 06014A   24293.21086577  .00052184  00000+0  25056-2 0  9993
2 29079  97.3410  43.5106 0007456 162.3801 197.7693 15.18640406 26336
RESURS-DK 1             
1 29228U 06021A   24293.20552818  .00009998  00000+0  64399-3 0  9991
2 29228  69.9332 103.3930 0005696 213.3918 146.6887 15.08573879 11048
ARIRANG-2 (KOMPSAT-2)   
1 29268U 06031A   24293.20516431  .00001787  00000+0  35026-3 0  9990
2 29268  97.8507 135.7552 0014228 190.2906 289.2106 14.63854790972886
LAPAN-TUBSAT            
1 29709U 07001A   24293.12152686  .00003683  00000+0  44285-3 0  9991
2 29709  98.0847 269.8503 0012572   5.7400 354.3956 14.84523109961199
HAIYANG-1B              
1 31113U 07010A   24292.95659827  .00000574  00000+0  23483-3 0  9995
2 31113  98.3024 289.3812 0013161 194.1484 165.9333 14.30725038913931
COSMO-SKYMED 1          
1 31598U 07023A   24293.15274653  .00003810  00000+0  48513-3 0  9996
2 31598  97.8882 114.5112 0001583  89.4808 270.6587 14.82135547939566
TERRASAR-X              
1 31698U 07026A   24292.41326640  .00006827  00000+0  32785-3 0  9997
2 31698  97.4456 297.8202 0001911  82.4218 277.7233 15.19164276961101
